NORAD_CAT_ID,OBJECT_NAME,OBJECT_TYPE,EPOCH,MEAN_MOTION,ECCENTRICITY,INCLINATION,RA_OF_ASC_NODE,ARG_OF_PERICENTER,MEAN_ANOMALY,BSTAR,MEAN_MOTION_DOT,MEAN_MOTION_DDOT,TLE_LINE0,TLE_LINE1,TLE_LINE2,SEMIMAJOR_AXIS,PERIOD,APOGEE,PERIGEE,DECAYED
52603.0,STARLINK-4016,PAYLOAD,2022-05-20 16:00:00,15.8002775,9.4e-05,53.2173,50.8552,92.6293,304.7084,-0.0050996,-0.00875697,0.0,0 STARLINK-4016,1 52603U 22052F   22140.66667824 -.00875697  00000-0 -50996-2 0  9996,2 52603  53.2173  50.8552 0000940  92.6293 304.7084 15.80027750  1303,6708.499,91.138,330.995,329.733,0.0
52603.0,STARLINK-4016,PAYLOAD,2022-05-21 20:00:01,15.77826577,0.0001189,53.2177,45.0335,88.0102,104.6362,-0.0056373,-0.00875593,0.0,0 STARLINK-4016,1 52603U 22052F   22141.83334491 -.00875593  00000-0 -56373-2 0  9997,2 52603  53.2177  45.0335 0001189  88.0102 104.6362 15.77826577  1481,6714.736999999999,91.265,337.4,335.80300000000005,0.0
52603.0,STARLINK-4016,PAYLOAD,2022-05-21 22:00:00,15.77669696,0.0001066,53.2176,44.619,92.1638,214.0784,-0.0056851,-0.00876636,0.0,0 STARLINK-4016,1 52603U 22052F   22141.91667824 -.00876636  00000-0 -56851-2 0  9995,2 52603  53.2176  44.6190 0001066  92.1638 214.0784 15.77669696  1300,6715.182,91.274,337.7630000000001,336.331,0.0
52603.0,STARLINK-4016,PAYLOAD,2022-05-22 14:00:01,15.76409697,0.0001085,53.2172,41.2997,88.8164,44.496,-0.0059952,-0.00873988,0.0,0 STARLINK-4016,1 52603U 22052F   22142.58334491 -.00873988  00000-0 -59952-2 0  9992,2 52603  53.2172  41.2997 0001085  88.8164  44.4960 15.76409697  1304,6718.76,91.347,341.3540000000001,339.896,0.0
52603.0,STARLINK-4016,PAYLOAD,2022-05-22 20:00:01,15.75938815,0.0001081,53.2174,40.0579,84.9601,27.7224,-0.0061345,-0.00875603,0.0,0 STARLINK-4016,1 52603U 22052F   22142.83334491 -.00875603  00000-0 -61345-2 0  9995,2 52603  53.2174  40.0579 0001081  84.9601  27.7224 15.75938815  1640,6720.098000000001,91.374,342.689,341.237,0.0
52603.0,STARLINK-4016,PAYLOAD,2022-05-22 22:00:01,15.75779167,0.000118,53.2174,39.6445,89.8576,135.9203,-0.0061499,-0.00872026,0.0,0 STARLINK-4016,1 52603U 22052F   22142.91668981 -.00872026  00000-0 -61499-2 0  9994,2 52603  53.2174  39.6445 0001180  89.8576 135.9203 15.75779167  1306,6720.552,91.383,343.21,341.624,0.0
52603.0,STARLINK-4016,PAYLOAD,2022-05-23 14:00:01,15.74521164,0.0001008,53.2173,36.3344,109.1395,299.1052,-0.006509,-0.00873067,0.0,0 STARLINK-4016,1 52603U 22052F   22143.58334491 -.00873067  00000-0 -65090-2 0  9991,2 52603  53.2173  36.3344 0001008 109.1395 299.1052 15.74521164  1307,6724.130999999999,91.456,346.6740000000001,345.3180000000001,0.0
52603.0,STARLINK-4016,PAYLOAD,2022-05-23 20:00:01,15.74045223,9.88e-05,53.2177,35.0963,99.0152,286.8992,-0.0065645,-0.00863418,0.0,0 STARLINK-4016,1 52603U 22052F   22143.83334491 -.00863418  00000-0 -65645-2 0  9994,2 52603  53.2177  35.0963 0000988  99.0152 286.8992 15.74045223  1806,6725.486,91.484,348.016,346.68699999999984,0.0
52603.0,STARLINK-4016,PAYLOAD,2022-05-23 22:00:01,15.73841577,0.000107,53.2174,34.6839,86.8003,51.6508,-0.0057317,-0.00756962,0.0,0 STARLINK-4016,1 52603U 22052F   22143.91668981 -.00756962  00000-0 -57317-2 0  9999,2 52603  53.2174  34.6839 0001070  86.8003  51.6508 15.73841577  1303,6726.066999999999,91.496,348.651,347.212,0.0
52603.0,STARLINK-4016,PAYLOAD,2022-05-24 04:00:00,15.73254282,0.0001115,53.2173,33.4467,118.7563,356.7406,-0.00056402,-0.00079216,0.0,0 STARLINK-4016,1 52603U 22052F   22144.16667824 -.00079216  00000-0 -56402-3 0  9997,2 52603  53.2173  33.4467 0001115 118.7563 356.7406 15.73254282  1859,6727.74,91.53,350.356,348.855,0.0
52603.0,STARLINK-4016,PAYLOAD,2022-05-24 12:00:00,15.73108758,8.109999999999999e-05,53.2164,31.7963,98.9862,105.6377,-0.00027749,-0.00039228,0.0,0 STARLINK-4016,1 52603U 22052F   22144.50001157 -.00039228  00000-0 -27749-3 0  9997,2 52603  53.2164  31.7963 0000811  98.9862 105.6377 15.73108758  1904,6728.155,91.538,350.566,349.475,0.0
52603.0,STARLINK-4016,PAYLOAD,2022-05-24 14:00:01,15.72920404,0.0001063,53.2163,31.3832,107.434,209.4536,0.0025391,0.00367361,0.0,0 STARLINK-4016,1 52603U 22052F   22144.58334491  .00367361  00000-0  25391-2 0  9995,2 52603  53.2163  31.3832 0001063 107.4340 209.4536 15.72920404  1304,6728.691999999999,91.549,351.273,349.842,0.0
52603.0,STARLINK-4016,PAYLOAD,2022-05-24 20:00:01,15.73255289,0.0001186,53.2149,30.15,112.2979,181.357,-0.00054225,-0.00076213,0.0,0 STARLINK-4016,1 52603U 22052F   22144.83335648 -.00076213  00000-0 -54225-3 0  9992,2 52603  53.2149  30.1500 0001186 112.2979 181.3570 15.73255289  1955,6727.738,91.53,350.4,348.805,0.0
52603.0,STARLINK-4016,PAYLOAD,2022-05-24 22:00:00,15.73240969,0.0001172,53.2148,29.7382,107.8696,297.9671,-0.0005309,-0.000746,0.0,0 STARLINK-4016,1 52603U 22052F   22144.91667824 -.00074600  00000-0 -53090-3 0  9992,2 52603  53.2148  29.7382 0001172 107.8696 297.9671 15.73240969  1301,6727.778,91.531,350.432,348.855,0.0
52603.0,STARLINK-4016,PAYLOAD,2022-05-25 12:00:00,15.73113567,0.0001139,53.2152,26.85,115.9742,355.5112,0.0006612,0.00092861,0.0,0 STARLINK-4016,1 52603U 22052F   22145.50001157  .00092861  00000-0  66120-3 0  9994,2 52603  53.2152  26.8500 0001139 115.9742 355.5112 15.73113567  2069,6728.142,91.538,350.773,349.24,0.0
52603.0,STARLINK-4016,PAYLOAD,2022-05-25 14:00:01,15.731237900000002,0.0001200999999999,53.2151,26.4372,115.3207,108.3761,0.00070847,0.00099669,0.0,0 STARLINK-4016,1 52603U 22052F   22145.58334491  .00099669  00000-0  70847-3 0  9996,2 52603  53.2151  26.4372 0001201 115.3207 108.3761 15.73123790  1300,6728.111999999999,91.538,350.786,349.1690000000001,0.0
52603.0,STARLINK-4016,PAYLOAD,2022-05-25 20:40:36,15.73213385,0.0001418,53.2153,25.0603,128.6507,231.4641,0.00019557,0.0002693,0.0,0 STARLINK-4016,1 52603U 22052F   22145.86153237  .00026930  00000-0  19557-3 0  9996,2 52603  53.2153  25.0603 0001418 128.6507 231.4641 15.73213385  2557,6727.857,91.532,350.676,348.76800000000014,0.0
52603.0,STARLINK-4016,PAYLOAD,2022-05-26 04:00:00,15.73183146,8.6e-05,53.2149,23.5529,105.1556,184.1679,0.00039768,0.00055521,0.0,0 STARLINK-4016,1 52603U 22052F   22146.16667824  .00055521  00000-0  39768-3 0  9996,2 52603  53.2149  23.5529 0000860 105.1556 184.1679 15.73183146  2169,6727.943,91.534,350.38699999999994,349.23,0.0
52603.0,STARLINK-4016,PAYLOAD,2022-05-26 08:52:26,15.7322719,0.0001159,53.2158,22.5462,102.2222,257.8928,0.00016544,0.00022688,0.0,0 STARLINK-4016,1 52603U 22052F   22146.36975127  .00022688  00000-0  16544-3 0  9991,2 52603  53.2158  22.5462 0001159 102.2222 257.8928 15.73227190  2639,6727.818,91.532,350.462,348.903,0.0
52603.0,STARLINK-4016,PAYLOAD,2022-05-26 12:00:00,15.73167562,0.0001076,53.2149,21.9013,119.8782,258.3784,8.3925e-05,0.00011158,0.0,0 STARLINK-4016,1 52603U 22052F   22146.50001157  .00011158  00000-0  83925-4 0  9998,2 52603  53.2149  21.9013 0001076 119.8782 258.3784 15.73167562  2213,6727.988,91.535,350.577,349.129,0.0
52603.0,STARLINK-4016,PAYLOAD,2022-05-26 20:00:01,15.73218487,9.01e-05,53.215,20.2533,120.8257,346.37,-0.00051734,-0.00072655,0.0,0 STARLINK-4016,1 52603U 22052F   22146.83334491 -.00072655  00000-0 -51734-3 0  9997,2 52603  53.2150  20.2533 0000901 120.8257 346.3700 15.73218487  2274,6727.842,91.532,350.314,349.101,0.0
52603.0,STARLINK-4016,PAYLOAD,2022-05-26 22:00:00,15.7318938,8.44e-05,53.215,19.8414,115.7366,103.6986,-0.00019769,-0.00028257,0.0,0 STARLINK-4016,1 52603U 22052F   22146.91667824 -.00028257  00000-0 -19769-3 0  9996,2 52603  53.2150  19.8414 0000844 115.7366 103.6986 15.73189380  1308,6727.925,91.534,350.358,349.223,0.0
52603.0,STARLINK-4016,PAYLOAD,2022-05-27 02:00:01,15.7313053,7.020000000000001e-05,53.2149,19.0172,116.3055,327.5945,0.00077906,0.00109827,0.0,0 STARLINK-4016,1 52603U 22052F   22147.08334491  .00109827  00000-0  77906-3 0  9994,2 52603  53.2149  19.0172 0000702 116.3055 327.5945 15.73130530  2311,6728.093000000003,91.537,350.431,349.486,0.0
52603.0,STARLINK-4016,PAYLOAD,2022-05-27 12:00:00,15.73199549,8.209999999999999e-05,53.2152,16.9529,129.85299999999998,155.1697,-1.2383e-05,-2.356e-05,0.0,0 STARLINK-4016,1 52603U 22052F   22147.50001157 -.00002356  00000-0 -12383-4 0  9991,2 52603  53.2152  16.9529 0000821 129.8530 155.1697 15.73199549  2376,6727.896,91.533,350.314,349.209,0.0
52603.0,STARLINK-4016,PAYLOAD,2022-05-27 14:00:01,15.73202626,9e-05,53.2153,16.5403,127.3178,269.9361,-7.2804e-05,-0.00010824,0.0,0 STARLINK-4016,1 52603U 22052F   22147.58334491 -.00010824  00000-0 -72804-4 0  9992,2 52603  53.2153  16.5403 0000900 127.3178 269.9361 15.73202626  1308,6727.888000000001,91.533,350.358,349.147,0.0
52603.0,STARLINK-4016,PAYLOAD,2022-05-27 21:27:58,15.73222972,0.0001359,53.2158,15.0024,106.0667,254.0503,0.00022216,0.00030703,0.0,0 STARLINK-4016,1 52603U 22052F   22147.89442823  .00030703  00000-0  22216-3 0  9992,2 52603  53.2158  15.0024 0001359 106.0667 254.0503 15.73222972  2436,6727.83,91.532,350.6090000000001,348.78,0.0
52603.0,STARLINK-4016,PAYLOAD,2022-05-27 22:00:01,15.731975699999998,9.2e-05,53.2152,14.8927,108.4441,17.8116,0.0002119,0.00029219,0.0,0 STARLINK-4016,1 52603U 22052F   22147.91668981  .00029219  00000-0  21190-3 0  9990,2 52603  53.2152  14.8927 0000920 108.4441  17.8116 15.73197570  1303,6727.901999999999,91.533,350.386,349.148,0.0
52603.0,STARLINK-4016,PAYLOAD,2022-05-28 04:00:00,15.73206607,8.240000000000001e-05,53.2172,13.6514,125.0317,337.7002,-2.7443e-05,-4.469e-05,0.0,0 STARLINK-4016,1 52603U 22052F   22148.16667824 -.00004469  00000-0 -27443-4 0  9993,2 52603  53.2172  13.6514 0000824 125.0317 337.7002 15.73206607  2484,6727.876,91.533,350.296,349.18699999999984,0.0
52603.0,STARLINK-4016,PAYLOAD,2022-05-28 12:00:00,15.73227676,0.0001099,53.2147,12.0042,117.3792,74.4801,5.0868e-05,6.533e-05,0.0,0 STARLINK-4016,1 52603U 22052F   22148.50001157  .00006533  00000-0  50868-4 0  9991,2 52603  53.2147  12.0042 0001099 117.3792  74.4801 15.73227676  2538,6727.816,91.532,350.421,348.94199999999995,0.0
